STARLINK-36779          
1 67869U 26034V   26074.59679839  .00182699  00000+0  90831-3 0  9994
2 67869  53.1586 181.5844 0001054 102.6691 257.4450 15.80906856  4876
STARLINK-36770          
1 67870U 26034W   26074.59529858  .00198180  00000+0  98292-3 0  9992
2 67870  53.1584 181.5741 0001534  49.0832 311.0324 15.80913155  4873
STARLINK-36769          
1 67871U 26034X   26074.59604622  .00249052  00000+0  12256-2 0  9996
2 67871  53.1580 181.5786 0001191  55.3311 304.7824 15.80939242  4879
STARLINK-36786          
1 67872U 26034Y   26074.53132963  .00311103  00000+0  15218-2 0  9993
2 67872  53.1584 181.8859 0000953 114.8549 245.2573 15.80898732  4864
STARLINK-36783          
1 67873U 26034Z   26074.72023231  .00363946  00000+0  17604-2 0  9995
2 67873  53.1585 180.9283 0001455 138.2572 221.8562 15.81001569  4897
STARLINK-36730          
1 67874U 26034AA  26074.59304869  .00317271  00000+0  15461-2 0  9999
2 67874  53.1584 181.5593 0001966  27.4807 332.6320 15.80965483  4879
STARLINK-36727          
1 67875U 26034AB  26074.52908020  .00206404  00000+0  10230-2 0  9996
2 67875  53.1586 181.8701 0000847  55.7602 304.3501 15.80904677  4864
STARLINK-36743          
1 67876U 26034AC  26074.71798291  .00277266  00000+0  13577-2 0  9996
2 67876  53.1588 180.9140 0001554 152.0266 208.0840 15.80968920  4897
STARLINK-36784          
1 67877U 26034AD  26074.71723565  .00220360  00000+0  10881-2 0  9997
2 67877  53.1590 180.9093 0001207 130.3087 229.8041 15.80945873  4899
STARLINK-36689          
1 67878U 26034AE  26074.52682959  .00238692  00000+0  11780-2 0  9994
2 67878  53.1585 181.8545 0000936 122.2134 237.8980 15.80905091  4863
STARLINK-36818          
1 67879U 26035A   26074.91668981 -.00135615  00000+0 -92039-3 0  9998
2 67879  97.2865   7.6030 0001051  99.1460 218.3938 15.75251872  4751
STARLINK-36821          
1 67880U 26035B   26074.91668981 -.00176730  00000+0 -12047-2 0  9993
2 67880  97.2861   7.6087 0001279 100.1468 233.4135 15.75264455  4752
