CCSDS_OMM_VERS = 2.0
CREATION_DATE  = 
ORIGINATOR     = 

OBJECT_NAME    = STARLINK-36779
OBJECT_ID      = 2026-034V
CENTER_NAME    = EARTH
REF_FRAME      = TEME
TIME_SYSTEM    = UTC
MEAN_ELEMENT_THEORY = SGP/SGP4

EPOCH          = 2026-03-15T14:19:23.380896
MEAN_MOTION    = 15.80906856
ECCENTRICITY   = .00010545
INCLINATION    = 53.1586
RA_OF_ASC_NODE = 181.5844
ARG_OF_PERICENTER = 102.6691
MEAN_ANOMALY   = 257.4450

EPHEMERIS_TYPE = 0
CLASSIFICATION_TYPE = U
NORAD_CAT_ID   = 67869
ELEMENT_SET_NO = 999
REV_AT_EPOCH   = 487
BSTAR          = .90831086E-3
MEAN_MOTION_DOT = .182699E-2
MEAN_MOTION_DDOT = 0

CCSDS_OMM_VERS = 2.0
CREATION_DATE  = 
ORIGINATOR     = 

OBJECT_NAME    = STARLINK-36770
OBJECT_ID      = 2026-034W
CENTER_NAME    = EARTH
REF_FRAME      = TEME
TIME_SYSTEM    = UTC
MEAN_ELEMENT_THEORY = SGP/SGP4

EPOCH          = 2026-03-15T14:17:13.797312
MEAN_MOTION    = 15.80913155
ECCENTRICITY   = .00015348
INCLINATION    = 53.1584
RA_OF_ASC_NODE = 181.5741
ARG_OF_PERICENTER = 49.0832
MEAN_ANOMALY   = 311.0324

EPHEMERIS_TYPE = 0
CLASSIFICATION_TYPE = U
NORAD_CAT_ID   = 67870
ELEMENT_SET_NO = 999
REV_AT_EPOCH   = 487
BSTAR          = .98291775E-3
MEAN_MOTION_DOT = .19818E-2
MEAN_MOTION_DDOT = 0

CCSDS_OMM_VERS = 2.0
CREATION_DATE  = 
ORIGINATOR     = 

OBJECT_NAME    = STARLINK-36769
OBJECT_ID      = 2026-034X
CENTER_NAME    = EARTH
REF_FRAME      = TEME
TIME_SYSTEM    = UTC
MEAN_ELEMENT_THEORY = SGP/SGP4

EPOCH          = 2026-03-15T14:18:18.393408
MEAN_MOTION    = 15.80939242
ECCENTRICITY   = .00011915
INCLINATION    = 53.1580
RA_OF_ASC_NODE = 181.5786
ARG_OF_PERICENTER = 55.3311
MEAN_ANOMALY   = 304.7824

EPHEMERIS_TYPE = 0
CLASSIFICATION_TYPE = U
NORAD_CAT_ID   = 67871
ELEMENT_SET_NO = 999
REV_AT_EPOCH   = 487
BSTAR          = .12255663E-2
MEAN_MOTION_DOT = .249052E-2
MEAN_MOTION_DDOT = 0

CCSDS_OMM_VERS = 2.0
CREATION_DATE  = 
ORIGINATOR     = 

OBJECT_NAME    = STARLINK-36786
OBJECT_ID      = 2026-034Y
CENTER_NAME    = EARTH
REF_FRAME      = TEME
TIME_SYSTEM    = UTC
MEAN_ELEMENT_THEORY = SGP/SGP4

EPOCH          = 2026-03-15T12:45:06.880032
MEAN_MOTION    = 15.80898732
ECCENTRICITY   = .00009537
INCLINATION    = 53.1584
RA_OF_ASC_NODE = 181.8859
ARG_OF_PERICENTER = 114.8549
MEAN_ANOMALY   = 245.2573

EPHEMERIS_TYPE = 0
CLASSIFICATION_TYPE = U
NORAD_CAT_ID   = 67872
ELEMENT_SET_NO = 999
REV_AT_EPOCH   = 486
BSTAR          = .15218041E-2
MEAN_MOTION_DOT = .311103E-2
MEAN_MOTION_DDOT = 0

CCSDS_OMM_VERS = 2.0
CREATION_DATE  = 
ORIGINATOR     = 

OBJECT_NAME    = STARLINK-36783
OBJECT_ID      = 2026-034Z
CENTER_NAME    = EARTH
REF_FRAME      = TEME
TIME_SYSTEM    = UTC
MEAN_ELEMENT_THEORY = SGP/SGP4

EPOCH          = 2026-03-15T17:17:08.071584
MEAN_MOTION    = 15.81001569
ECCENTRICITY   = .00014558
INCLINATION    = 53.1585
RA_OF_ASC_NODE = 180.9283
ARG_OF_PERICENTER = 138.2572
MEAN_ANOMALY   = 221.8562

EPHEMERIS_TYPE = 0
CLASSIFICATION_TYPE = U
NORAD_CAT_ID   = 67873
ELEMENT_SET_NO = 999
REV_AT_EPOCH   = 489
BSTAR          = .1760417E-2
MEAN_MOTION_DOT = .363946E-2
MEAN_MOTION_DDOT = 0

CCSDS_OMM_VERS = 2.0
CREATION_DATE  = 
ORIGINATOR     = 

OBJECT_NAME    = STARLINK-36730
OBJECT_ID      = 2026-034AA
CENTER_NAME    = EARTH
REF_FRAME      = TEME
TIME_SYSTEM    = UTC
MEAN_ELEMENT_THEORY = SGP/SGP4

EPOCH          = 2026-03-15T14:13:59.406816
MEAN_MOTION    = 15.80965483
ECCENTRICITY   = .00019662
INCLINATION    = 53.1584
RA_OF_ASC_NODE = 181.5593
ARG_OF_PERICENTER = 27.4807
MEAN_ANOMALY   = 332.6320

EPHEMERIS_TYPE = 0
CLASSIFICATION_TYPE = U
NORAD_CAT_ID   = 67874
ELEMENT_SET_NO = 999
REV_AT_EPOCH   = 487
BSTAR          = .15460604E-2
MEAN_MOTION_DOT = .317271E-2
MEAN_MOTION_DDOT = 0

CCSDS_OMM_VERS = 2.0
CREATION_DATE  = 
ORIGINATOR     = 

OBJECT_NAME    = STARLINK-36727
OBJECT_ID      = 2026-034AB
CENTER_NAME    = EARTH
REF_FRAME      = TEME
TIME_SYSTEM    = UTC
MEAN_ELEMENT_THEORY = SGP/SGP4

EPOCH          = 2026-03-15T12:41:52.529280
MEAN_MOTION    = 15.80904677
ECCENTRICITY   = .00008478
INCLINATION    = 53.1586
RA_OF_ASC_NODE = 181.8701
ARG_OF_PERICENTER = 55.7602
MEAN_ANOMALY   = 304.3501

EPHEMERIS_TYPE = 0
CLASSIFICATION_TYPE = U
NORAD_CAT_ID   = 67875
ELEMENT_SET_NO = 999
REV_AT_EPOCH   = 486
BSTAR          = .10229815E-2
MEAN_MOTION_DOT = .206404E-2
MEAN_MOTION_DDOT = 0

CCSDS_OMM_VERS = 2.0
CREATION_DATE  = 
ORIGINATOR     = 

OBJECT_NAME    = STARLINK-36743
OBJECT_ID      = 2026-034AC
CENTER_NAME    = EARTH
REF_FRAME      = TEME
TIME_SYSTEM    = UTC
MEAN_ELEMENT_THEORY = SGP/SGP4

EPOCH          = 2026-03-15T17:13:53.723424
MEAN_MOTION    = 15.80968920
ECCENTRICITY   = .00015546
INCLINATION    = 53.1588
RA_OF_ASC_NODE = 180.9140
ARG_OF_PERICENTER = 152.0266
MEAN_ANOMALY   = 208.0840

EPHEMERIS_TYPE = 0
CLASSIFICATION_TYPE = U
NORAD_CAT_ID   = 67876
ELEMENT_SET_NO = 999
REV_AT_EPOCH   = 489
BSTAR          = .13576723E-2
MEAN_MOTION_DOT = .277266E-2
MEAN_MOTION_DDOT = 0

CCSDS_OMM_VERS = 2.0
CREATION_DATE  = 
ORIGINATOR     = 

OBJECT_NAME    = STARLINK-36784
OBJECT_ID      = 2026-034AD
CENTER_NAME    = EARTH
REF_FRAME      = TEME
TIME_SYSTEM    = UTC
MEAN_ELEMENT_THEORY = SGP/SGP4

EPOCH          = 2026-03-15T17:12:49.160160
MEAN_MOTION    = 15.80945873
ECCENTRICITY   = .00012079
INCLINATION    = 53.1590
RA_OF_ASC_NODE = 180.9093
ARG_OF_PERICENTER = 130.3087
MEAN_ANOMALY   = 229.8041

EPHEMERIS_TYPE = 0
CLASSIFICATION_TYPE = U
NORAD_CAT_ID   = 67877
ELEMENT_SET_NO = 999
REV_AT_EPOCH   = 489
BSTAR          = .10880781E-2
MEAN_MOTION_DOT = .22036E-2
MEAN_MOTION_DDOT = 0

CCSDS_OMM_VERS = 2.0
CREATION_DATE  = 
ORIGINATOR     = 

OBJECT_NAME    = STARLINK-36689
OBJECT_ID      = 2026-034AE
CENTER_NAME    = EARTH
REF_FRAME      = TEME
TIME_SYSTEM    = UTC
MEAN_ELEMENT_THEORY = SGP/SGP4

EPOCH          = 2026-03-15T12:38:38.076576
MEAN_MOTION    = 15.80905091
ECCENTRICITY   = .00009369
INCLINATION    = 53.1585
RA_OF_ASC_NODE = 181.8545
ARG_OF_PERICENTER = 122.2134
MEAN_ANOMALY   = 237.8980

EPHEMERIS_TYPE = 0
CLASSIFICATION_TYPE = U
NORAD_CAT_ID   = 67878
ELEMENT_SET_NO = 999
REV_AT_EPOCH   = 486
BSTAR          = .1177993E-2
MEAN_MOTION_DOT = .238692E-2
MEAN_MOTION_DDOT = 0

CCSDS_OMM_VERS = 2.0
CREATION_DATE  = 
ORIGINATOR     = 

OBJECT_NAME    = STARLINK-36818
OBJECT_ID      = 2026-035A
CENTER_NAME    = EARTH
REF_FRAME      = TEME
TIME_SYSTEM    = UTC
MEAN_ELEMENT_THEORY = SGP/SGP4

EPOCH          = 2026-03-15T22:00:01.999584
MEAN_MOTION    = 15.75251872
ECCENTRICITY   = .00010511
INCLINATION    = 97.2865
RA_OF_ASC_NODE = 7.6030
ARG_OF_PERICENTER = 99.1460
MEAN_ANOMALY   = 218.3938

EPHEMERIS_TYPE = 0
CLASSIFICATION_TYPE = U
NORAD_CAT_ID   = 67879
ELEMENT_SET_NO = 999
REV_AT_EPOCH   = 475
BSTAR          = -.92038842E-3
MEAN_MOTION_DOT = -.135615E-2
MEAN_MOTION_DDOT = 0

CCSDS_OMM_VERS = 2.0
CREATION_DATE  = 
ORIGINATOR     = 

OBJECT_NAME    = STARLINK-36821
OBJECT_ID      = 2026-035B
CENTER_NAME    = EARTH
REF_FRAME      = TEME
TIME_SYSTEM    = UTC
MEAN_ELEMENT_THEORY = SGP/SGP4

EPOCH          = 2026-03-15T22:00:01.999584
MEAN_MOTION    = 15.75264455
ECCENTRICITY   = .00012794
INCLINATION    = 97.2861
RA_OF_ASC_NODE = 7.6087
ARG_OF_PERICENTER = 100.1468
MEAN_ANOMALY   = 233.4135

EPHEMERIS_TYPE = 0
CLASSIFICATION_TYPE = U
NORAD_CAT_ID   = 67880
ELEMENT_SET_NO = 999
REV_AT_EPOCH   = 475
BSTAR          = -.12047464E-2
MEAN_MOTION_DOT = -.17673E-2
MEAN_MOTION_DDOT = 0

